start=new Date('2023-06-03T00:00:00.000Z').valueOf();
sats=[{"PERIAPSIS":"538.977","BSTAR":"0.00011811000000","CLASSIFICATION_TYPE":"U","MEAN_MOTION":"15.08830495","EPHEMERIS_TYPE":"0","REF_FRAME":"TEME","OBJECT_NAME":"STARLINK-3917","MEAN_MOTION_DOT":"0.00001592","TIME_SYSTEM":"UTC","INCLINATION":"53.2175","LAUNCH_DATE":"2022-05-13","EPOCH":"2023-06-02T19:58:32.569824","PERIOD":"95.438","TLE_LINE1":"1 52588U 22051BE  23153.83232141  .00001592  00000-0  11811-3 0  9998","ECCENTRICITY":"0.00011520","FILE":"3923570","GP_ID":"233072166","MEAN_ANOMALY":"282.9657","MEAN_MOTION_DDOT":"0.0000000000000","OBJECT_TYPE":"PAYLOAD","ELEMENT_SET_NO":"999","NORAD_CAT_ID":"52588","RA_OF_ASC_NODE":"337.0356","COUNTRY_CODE":"US","SITE":"AFWTR","OBJECT_ID":"2022-051BE","MEAN_ELEMENT_THEORY":"SGP4","RCS_SIZE":"LARGE","DECAY_DATE":null,"CENTER_NAME":"EARTH","SEMIMAJOR_AXIS":"6917.909","REV_AT_EPOCH":"5898","APOAPSIS":"540.571","TLE_LINE2":"2 52588  53.2175 337.0356 0001152  77.1464 282.9657 15.08830495 58980","ARG_OF_PERICENTER":"77.1464"},{"TLE_LINE2":"2 52598  53.2158 142.7569 0001021  77.4534 282.6572 15.08836744 58958","APOAPSIS":"540.462","ARG_OF_PERICENTER":"77.4534","RCS_SIZE":"LARGE","SEMIMAJOR_AXIS":"6917.890","DECAY_DATE":null,"CENTER_NAME":"EARTH","REV_AT_EPOCH":"5895","RA_OF_ASC_NODE":"142.7569","NORAD_CAT_ID":"52598","COUNTRY_CODE":"US","OBJECT_ID":"2022-052A","SITE":"AFETR","MEAN_ELEMENT_THEORY":"SGP4","MEAN_ANOMALY":"282.6572","MEAN_MOTION_DDOT":"0.0000000000000","ELEMENT_SET_NO":"999","OBJECT_TYPE":"PAYLOAD","ECCENTRICITY":"0.00010210","TLE_LINE1":"1 52598U 22052A   23153.67177225  .00000140  00000-0  26906-4 0  9993","GP_ID":"233072416","FILE":"3923570","INCLINATION":"53.2158","LAUNCH_DATE":"2022-05-14","PERIOD":"95.438","EPOCH":"2023-06-02T16:07:21.122400","MEAN_MOTION":"15.08836744","MEAN_MOTION_DOT":"0.00000140","REF_FRAME":"TEME","OBJECT_NAME":"STARLINK-4019","EPHEMERIS_TYPE":"0","TIME_SYSTEM":"UTC","PERIAPSIS":"539.049","BSTAR":"0.00002690600000","CLASSIFICATION_TYPE":"U"},{"MEAN_MOTION":"15.08837002","TIME_SYSTEM":"UTC","EPHEMERIS_TYPE":"0","REF_FRAME":"TEME","MEAN_MOTION_DOT":"-0.00000065","OBJECT_NAME":"STARLINK-4024","PERIAPSIS":"539.043","CLASSIFICATION_TYPE":"U","BSTAR":"0.00001398800000","FILE":"3923570","GP_ID":"233072667","TLE_LINE1":"1 52599U 22052B   23153.65936406 -.00000065  00000-0  13988-4 0  9999","ECCENTRICITY":"0.00010290","LAUNCH_DATE":"2022-05-14","INCLINATION":"53.2158","EPOCH":"2023-06-02T15:49:29.054784","PERIOD":"95.438","COUNTRY_CODE":"US","NORAD_CAT_ID":"52599","RA_OF_ASC_NODE":"137.9150","MEAN_ELEMENT_THEORY":"SGP4","SITE":"AFETR","OBJECT_ID":"2022-052B","MEAN_MOTION_DDOT":"0.0000000000000","MEAN_ANOMALY":"285.7760","OBJECT_TYPE":"PAYLOAD","ELEMENT_SET_NO":"999","APOAPSIS":"540.466","TLE_LINE2":"2 52599  53.2158 137.9150 0001029  74.3346 285.7760 15.08837002 59026","ARG_OF_PERICENTER":"74.3346","RCS_SIZE":"LARGE","REV_AT_EPOCH":"5902","CENTER_NAME":"EARTH","DECAY_DATE":null,"SEMIMAJOR_AXIS":"6917.890"},{"PERIAPSIS":"538.876","BSTAR":"0.00002170400000","CLASSIFICATION_TYPE":"U","MEAN_MOTION":"15.08840136","EPHEMERIS_TYPE":"0","REF_FRAME":"TEME","OBJECT_NAME":"STARLINK-4026","MEAN_MOTION_DOT":"0.00000058","TIME_SYSTEM":"UTC","INCLINATION":"53.2160","LAUNCH_DATE":"2022-05-14","EPOCH":"2023-06-02T05:45:21.137472","PERIOD":"95.438","TLE_LINE1":"1 52600U 22052C   23153.23982798  .00000058  00000-0  21704-4 0  9997","ECCENTRICITY":"0.00012560","GP_ID":"233039578","FILE":"3923342","MEAN_ANOMALY":"268.9846","MEAN_MOTION_DDOT":"0.0000000000000","OBJECT_TYPE":"PAYLOAD","ELEMENT_SET_NO":"999","NORAD_CAT_ID":"52600","RA_OF_ASC_NODE":"139.6936","COUNTRY_CODE":"US","SITE":"AFETR","OBJECT_ID":"2022-052C","MEAN_ELEMENT_THEORY":"SGP4","RCS_SIZE":"LARGE","CENTER_NAME":"EARTH","DECAY_DATE":null,"SEMIMAJOR_AXIS":"6917.880","REV_AT_EPOCH":"5896","APOAPSIS":"540.614","TLE_LINE2":"2 52600  53.2160 139.6936 0001256  91.1290 268.9846 15.08840136 58962","ARG_OF_PERICENTER":"91.1290"},{"ELEMENT_SET_NO":"999","OBJECT_TYPE":"PAYLOAD","MEAN_MOTION_DDOT":"0.0000000000000","MEAN_ANOMALY":"277.8392","MEAN_ELEMENT_THEORY":"SGP4","OBJECT_ID":"2022-052D","SITE":"AFETR","COUNTRY_CODE":"US","RA_OF_ASC_NODE":"137.8774","NORAD_CAT_ID":"52601","REV_AT_EPOCH":"5902","SEMIMAJOR_AXIS":"6917.888","DECAY_DATE":null,"CENTER_NAME":"EARTH","RCS_SIZE":"LARGE","ARG_OF_PERICENTER":"82.2707","TLE_LINE2":"2 52601  53.2158 137.8774 0000942  82.2707 277.8392 15.08837531 59023","APOAPSIS":"540.405","CLASSIFICATION_TYPE":"U","BSTAR":"0.00002545400000","PERIAPSIS":"539.101","TIME_SYSTEM":"UTC","REF_FRAME":"TEME","OBJECT_NAME":"STARLINK-4027","MEAN_MOTION_DOT":"0.00000117","EPHEMERIS_TYPE":"0","MEAN_MOTION":"15.08837531","PERIOD":"95.438","EPOCH":"2023-06-02T15:28:16.107168","LAUNCH_DATE":"2022-05-14","INCLINATION":"53.2158","GP_ID":"233071666","FILE":"3923570","ECCENTRICITY":"0.00009420","TLE_LINE1":"1 52601U 22052D   23153.64463087  .00000117  00000-0  25454-4 0  9990"},{"DECAY_DATE":null,"CENTER_NAME":"EARTH","SEMIMAJOR_AXIS":"6917.874","REV_AT_EPOCH":"5898","RCS_SIZE":"LARGE","ARG_OF_PERICENTER":"87.6030","APOAPSIS":"540.568","TLE_LINE2":"2 52602  53.2152 139.0835 0001199  87.6030 272.5099 15.08842105 58986","OBJECT_TYPE":"PAYLOAD","ELEMENT_SET_NO":"999","MEAN_ANOMALY":"272.5099","MEAN_MOTION_DDOT":"0.0000000000000","SITE":"AFETR","OBJECT_ID":"2022-052E","MEAN_ELEMENT_THEORY":"SGP4","NORAD_CAT_ID":"52602","RA_OF_ASC_NODE":"139.0835","COUNTRY_CODE":"US","EPOCH":"2023-06-02T09:01:25.243104","PERIOD":"95.437","INCLINATION":"53.2152","LAUNCH_DATE":"2022-05-14","TLE_LINE1":"1 52602U 22052E   23153.37598661  .00000457  00000-0  46782-4 0  9992","ECCENTRICITY":"0.00011990","GP_ID":"233041079","FILE":"3923342","BSTAR":"0.00004678200000","CLASSIFICATION_TYPE":"U","PERIAPSIS":"538.910","EPHEMERIS_TYPE":"0","MEAN_MOTION_DOT":"0.00000457","REF_FRAME":"TEME","OBJECT_NAME":"STARLINK-4012","TIME_SYSTEM":"UTC","MEAN_MOTION":"15.08842105"},{"OBJECT_ID":"2022-052F","SITE":"AFETR","MEAN_ELEMENT_THEORY":"SGP4","RA_OF_ASC_NODE":"137.6661","NORAD_CAT_ID":"52603","COUNTRY_CODE":"US","ELEMENT_SET_NO":"999","OBJECT_TYPE":"PAYLOAD","MEAN_ANOMALY":"279.3934","MEAN_MOTION_DDOT":"0.0000000000000","ARG_OF_PERICENTER":"80.7181","TLE_LINE2":"2 52603  53.2155 137.6661 0001086  80.7181 279.3934 15.08842365 59035","APOAPSIS":"540.489","SEMIMAJOR_AXIS":"6917.873","CENTER_NAME":"EARTH","DECAY_DATE":null,"REV_AT_EPOCH":"5903","RCS_SIZE":"LARGE","MEAN_MOTION_DOT":"0.00000737","REF_FRAME":"TEME","OBJECT_NAME":"STARLINK-4016","EPHEMERIS_TYPE":"0","TIME_SYSTEM":"UTC","MEAN_MOTION":"15.08842365","BSTAR":"0.00006437300000","CLASSIFICATION_TYPE":"U","PERIAPSIS":"538.987","ECCENTRICITY":"0.00010860","TLE_LINE1":"1 52603U 22052F   23153.69342570  .00000737  00000-0  64373-4 0  9991","FILE":"3923570","GP_ID":"233073168","PERIOD":"95.437","EPOCH":"2023-06-02T16:38:31.980480","INCLINATION":"53.2155","LAUNCH_DATE":"2022-05-14"},{"MEAN_ELEMENT_THEORY":"SGP4","SITE":"AFETR","OBJECT_ID":"2022-052G","COUNTRY_CODE":"US","NORAD_CAT_ID":"52604","RA_OF_ASC_NODE":"139.7131","OBJECT_TYPE":"PAYLOAD","ELEMENT_SET_NO":"999","MEAN_MOTION_DDOT":"0.0000000000000","MEAN_ANOMALY":"273.1788","ARG_OF_PERICENTER":"86.9334","APOAPSIS":"540.518","TLE_LINE2":"2 52604  53.2163 139.7131 0001137  86.9334 273.1788 15.08844574 58161","REV_AT_EPOCH":"5816","CENTER_NAME":"EARTH","DECAY_DATE":null,"SEMIMAJOR_AXIS":"6917.866","RCS_SIZE":"LARGE","TIME_SYSTEM":"UTC","EPHEMERIS_TYPE":"0","OBJECT_NAME":"STARLINK-4013","REF_FRAME":"TEME","MEAN_MOTION_DOT":"0.00000915","MEAN_MOTION":"15.08844574","CLASSIFICATION_TYPE":"U","BSTAR":"0.00007557300000","PERIAPSIS":"538.945","FILE":"3923342","GP_ID":"233040078","TLE_LINE1":"1 52604U 22052G   23153.23614576  .00000915  00000-0  75573-4 0  9992","ECCENTRICITY":"0.00011370","EPOCH":"2023-06-02T05:40:02.993664","PERIOD":"95.437","LAUNCH_DATE":"2022-05-14","INCLINATION":"53.2163"},{"PERIOD":"95.438","EPOCH":"2023-06-02T16:02:03.216192","INCLINATION":"53.2147","LAUNCH_DATE":"2022-05-14","ECCENTRICITY":"0.00011650","TLE_LINE1":"1 52605U 22052H   23153.66809278  .00000049  00000-0  21157-4 0  9992","GP_ID":"233072167","FILE":"3923570","BSTAR":"0.00002115700000","CLASSIFICATION_TYPE":"U","PERIAPSIS":"538.951","OBJECT_NAME":"STARLINK-4000","REF_FRAME":"TEME","MEAN_MOTION_DOT":"0.00000049","EPHEMERIS_TYPE":"0","TIME_SYSTEM":"UTC","MEAN_MOTION":"15.08836313","SEMIMAJOR_AXIS":"6917.892","CENTER_NAME":"EARTH","DECAY_DATE":null,"REV_AT_EPOCH":"5815","RCS_SIZE":"LARGE","ARG_OF_PERICENTER":"80.8332","TLE_LINE2":"2 52605  53.2147 142.7707 0001165  80.8332 279.2792 15.08836313 58152","APOAPSIS":"540.563","ELEMENT_SET_NO":"999","OBJECT_TYPE":"PAYLOAD","MEAN_ANOMALY":"279.2792","MEAN_MOTION_DDOT":"0.0000000000000","OBJECT_ID":"2022-052H","SITE":"AFETR","MEAN_ELEMENT_THEORY":"SGP4","RA_OF_ASC_NODE":"142.7707","NORAD_CAT_ID":"52605","COUNTRY_CODE":"US"},{"GP_ID":"233072417","FILE":"3923570","TLE_LINE1":"1 52606U 22052J   23153.69614822  .00000543  00000-0  52184-4 0  9998","ECCENTRICITY":"0.00011220","EPOCH":"2023-06-02T16:42:27.206208","PERIOD":"95.437","LAUNCH_DATE":"2022-05-14","INCLINATION":"53.2159","TIME_SYSTEM":"UTC","EPHEMERIS_TYPE":"0","MEAN_MOTION_DOT":"0.00000543","OBJECT_NAME":"STARLINK-3928","REF_FRAME":"TEME","MEAN_MOTION":"15.08841091","CLASSIFICATION_TYPE":"U","BSTAR":"0.00005218400000","PERIAPSIS":"538.966","ARG_OF_PERICENTER":"87.0174","APOAPSIS":"540.518","TLE_LINE2":"2 52606  53.2159 137.6443 0001122  87.0174 273.0946 15.08841091 58233","REV_AT_EPOCH":"5823","CENTER_NAME":"EARTH","DECAY_DATE":null,"SEMIMAJOR_AXIS":"6917.877","RCS_SIZE":"LARGE","MEAN_ELEMENT_THEORY":"SGP4","SITE":"AFETR","OBJECT_ID":"2022-052J","COUNTRY_CODE":"US","NORAD_CAT_ID":"52606","RA_OF_ASC_NODE":"137.6443","OBJECT_TYPE":"PAYLOAD","ELEMENT_SET_NO":"999","MEAN_MOTION_DDOT":"0.0000000000000","MEAN_ANOMALY":"273.0946"}];
